ORBCOMM-X               
1 21576U 91050C   25122.89770852  .00000598  00000+0  19066-3 0  9990
2 21576  98.3456 190.4134 0002931 343.2607  16.8487 14.43225998775583
ORBCOMM FM01            
1 23545U 95017A   25122.87982166  .00009154  00000+0  96542-3 0  9997
2 23545  69.9630 187.0682 0003366 327.8751  32.2198 14.89571361605761
ORBCOMM FM02            
1 23546U 95017B   25122.84703337  .00014935  00000+0  15390-2 0  9990
2 23546  69.9647 206.6744 0004185 345.3337  14.7695 14.90325446605403
ORBCOMM FM08            
1 25112U 97084A   25122.71213014  .00002687  00000+0  79251-3 0  9999
2 25112  45.0128 226.1415 0004739   4.7355 355.3540 14.45673397434792
ORBCOMM FM10            
1 25113U 97084B   25122.75569872  .00002568  00000+0  76253-3 0  9997
2 25113  45.0143 228.2338 0004223 318.5183  41.5347 14.45463571609941
ORBCOMM FM11            
1 25114U 97084C   25122.75243964  .00002692  00000+0  80122-3 0  9997
2 25114  45.0128 228.8008 0004919 324.5800  35.4724 14.45215648434903
ORBCOMM FM12            
1 25115U 97084D   25122.78471493  .00002631  00000+0  78364-3 0  9999
2 25115  45.0134 228.4010 0004079 316.9819  43.0713 14.45236768434709
ORBCOMM FM09            
1 25116U 97084E   25122.74402764  .00002455  00000+0  73583-3 0  9993
2 25116  45.0139 229.4842 0005706 311.8878  48.1486 14.45115204434902
