<?xml version="1.0" encoding="UTF-8"?>
<ndm xmlns:xsi="http://www.w3.org/2001/XMLSchema-instance" xsi:noNamespaceSchemaLocation="https://sanaregistry.org/r/ndmxml_unqualified/ndmxml-2.0.0-master-2.0.xsd">
<omm id="CCSDS_OMM_VERS" version="2.0">
<header><CREATION_DATE/><ORIGINATOR/></header><body><segment><metadata><OBJECT_NAME>ORBCOMM-X</OBJECT_NAME><OBJECT_ID>1991-050C</OBJECT_ID><CENTER_NAME>EARTH</CENTER_NAME><REF_FRAME>TEME</REF_FRAME><TIME_SYSTEM>UTC</TIME_SYSTEM><MEAN_ELEMENT_THEORY>SGP4</MEAN_ELEMENT_THEORY></metadata><data><meanElements><EPOCH>2025-05-02T21:32:42.016128</EPOCH><MEAN_MOTION>14.43225998</MEAN_MOTION><ECCENTRICITY>.0002931</ECCENTRICITY><INCLINATION>98.3456</INCLINATION><RA_OF_ASC_NODE>190.4134</RA_OF_ASC_NODE><ARG_OF_PERICENTER>343.2607</ARG_OF_PERICENTER><MEAN_ANOMALY>16.8487</MEAN_ANOMALY></meanElements><tleParameters><EPHEMERIS_TYPE>0</EPHEMERIS_TYPE><CLASSIFICATION_TYPE>U</CLASSIFICATION_TYPE><NORAD_CAT_ID>21576</NORAD_CAT_ID><ELEMENT_SET_NO>999</ELEMENT_SET_NO><REV_AT_EPOCH>77558</REV_AT_EPOCH><BSTAR>.19066E-3</BSTAR><MEAN_MOTION_DOT>.598E-5</MEAN_MOTION_DOT><MEAN_MOTION_DDOT>0</MEAN_MOTION_DDOT></tleParameters></data></segment></body></omm>
<omm id="CCSDS_OMM_VERS" version="2.0">
<header><CREATION_DATE/><ORIGINATOR/></header><body><segment><metadata><OBJECT_NAME>ORBCOMM FM01</OBJECT_NAME><OBJECT_ID>1995-017A</OBJECT_ID><CENTER_NAME>EARTH</CENTER_NAME><REF_FRAME>TEME</REF_FRAME><TIME_SYSTEM>UTC</TIME_SYSTEM><MEAN_ELEMENT_THEORY>SGP4</MEAN_ELEMENT_THEORY></metadata><data><meanElements><EPOCH>2025-05-02T21:06:56.591424</EPOCH><MEAN_MOTION>14.89571361</MEAN_MOTION><ECCENTRICITY>.0003366</ECCENTRICITY><INCLINATION>69.9630</INCLINATION><RA_OF_ASC_NODE>187.0682</RA_OF_ASC_NODE><ARG_OF_PERICENTER>327.8751</ARG_OF_PERICENTER><MEAN_ANOMALY>32.2198</MEAN_ANOMALY></meanElements><tleParameters><EPHEMERIS_TYPE>0</EPHEMERIS_TYPE><CLASSIFICATION_TYPE>U</CLASSIFICATION_TYPE><NORAD_CAT_ID>23545</NORAD_CAT_ID><ELEMENT_SET_NO>999</ELEMENT_SET_NO><REV_AT_EPOCH>60576</REV_AT_EPOCH><BSTAR>.96542E-3</BSTAR><MEAN_MOTION_DOT>.9154E-4</MEAN_MOTION_DOT><MEAN_MOTION_DDOT>0</MEAN_MOTION_DDOT></tleParameters></data></segment></body></omm>
<omm id="CCSDS_OMM_VERS" version="2.0">
<header><CREATION_DATE/><ORIGINATOR/></header><body><segment><metadata><OBJECT_NAME>ORBCOMM FM02</OBJECT_NAME><OBJECT_ID>1995-017B</OBJECT_ID><CENTER_NAME>EARTH</CENTER_NAME><REF_FRAME>TEME</REF_FRAME><TIME_SYSTEM>UTC</TIME_SYSTEM><MEAN_ELEMENT_THEORY>SGP4</MEAN_ELEMENT_THEORY></metadata><data><meanElements><EPOCH>2025-05-02T20:19:43.683168</EPOCH><MEAN_MOTION>14.90325446</MEAN_MOTION><ECCENTRICITY>.0004185</ECCENTRICITY><INCLINATION>69.9647</INCLINATION><RA_OF_ASC_NODE>206.6744</RA_OF_ASC_NODE><ARG_OF_PERICENTER>345.3337</ARG_OF_PERICENTER><MEAN_ANOMALY>14.7695</MEAN_ANOMALY></meanElements><tleParameters><EPHEMERIS_TYPE>0</EPHEMERIS_TYPE><CLASSIFICATION_TYPE>U</CLASSIFICATION_TYPE><NORAD_CAT_ID>23546</NORAD_CAT_ID><ELEMENT_SET_NO>999</ELEMENT_SET_NO><REV_AT_EPOCH>60540</REV_AT_EPOCH><BSTAR>.1539E-2</BSTAR><MEAN_MOTION_DOT>.14935E-3</MEAN_MOTION_DOT><MEAN_MOTION_DDOT>0</MEAN_MOTION_DDOT></tleParameters></data></segment></body></omm>
<omm id="CCSDS_OMM_VERS" version="2.0">
<header><CREATION_DATE/><ORIGINATOR/></header><body><segment><metadata><OBJECT_NAME>ORBCOMM FM08</OBJECT_NAME><OBJECT_ID>1997-084A</OBJECT_ID><CENTER_NAME>EARTH</CENTER_NAME><REF_FRAME>TEME</REF_FRAME><TIME_SYSTEM>UTC</TIME_SYSTEM><MEAN_ELEMENT_THEORY>SGP4</MEAN_ELEMENT_THEORY></metadata><data><meanElements><EPOCH>2025-05-02T17:05:28.044096</EPOCH><MEAN_MOTION>14.45673397</MEAN_MOTION><ECCENTRICITY>.0004739</ECCENTRICITY><INCLINATION>45.0128</INCLINATION><RA_OF_ASC_NODE>226.1415</RA_OF_ASC_NODE><ARG_OF_PERICENTER>4.7355</ARG_OF_PERICENTER><MEAN_ANOMALY>355.3540</MEAN_ANOMALY></meanElements><tleParameters><EPHEMERIS_TYPE>0</EPHEMERIS_TYPE><CLASSIFICATION_TYPE>U</CLASSIFICATION_TYPE><NORAD_CAT_ID>25112</NORAD_CAT_ID><ELEMENT_SET_NO>999</ELEMENT_SET_NO><REV_AT_EPOCH>43479</REV_AT_EPOCH><BSTAR>.79251E-3</BSTAR><MEAN_MOTION_DOT>.2687E-4</MEAN_MOTION_DOT><MEAN_MOTION_DDOT>0</MEAN_MOTION_DDOT></tleParameters></data></segment></body></omm>
<omm id="CCSDS_OMM_VERS" version="2.0">
<header><CREATION_DATE/><ORIGINATOR/></header><body><segment><metadata><OBJECT_NAME>ORBCOMM FM10</OBJECT_NAME><OBJECT_ID>1997-084B</OBJECT_ID><CENTER_NAME>EARTH</CENTER_NAME><REF_FRAME>TEME</REF_FRAME><TIME_SYSTEM>UTC</TIME_SYSTEM><MEAN_ELEMENT_THEORY>SGP4</MEAN_ELEMENT_THEORY></metadata><data><meanElements><EPOCH>2025-05-02T18:08:12.369408</EPOCH><MEAN_MOTION>14.45463571</MEAN_MOTION><ECCENTRICITY>.0004223</ECCENTRICITY><INCLINATION>45.0143</INCLINATION><RA_OF_ASC_NODE>228.2338</RA_OF_ASC_NODE><ARG_OF_PERICENTER>318.5183</ARG_OF_PERICENTER><MEAN_ANOMALY>41.5347</MEAN_ANOMALY></meanElements><tleParameters><EPHEMERIS_TYPE>0</EPHEMERIS_TYPE><CLASSIFICATION_TYPE>U</CLASSIFICATION_TYPE><NORAD_CAT_ID>25113</NORAD_CAT_ID><ELEMENT_SET_NO>999</ELEMENT_SET_NO><REV_AT_EPOCH>60994</REV_AT_EPOCH><BSTAR>.76253E-3</BSTAR><MEAN_MOTION_DOT>.2568E-4</MEAN_MOTION_DOT><MEAN_MOTION_DDOT>0</MEAN_MOTION_DDOT></tleParameters></data></segment></body></omm>
<omm id="CCSDS_OMM_VERS" version="2.0">
<header><CREATION_DATE/><ORIGINATOR/></header><body><segment><metadata><OBJECT_NAME>ORBCOMM FM11</OBJECT_NAME><OBJECT_ID>1997-084C</OBJECT_ID><CENTER_NAME>EARTH</CENTER_NAME><REF_FRAME>TEME</REF_FRAME><TIME_SYSTEM>UTC</TIME_SYSTEM><MEAN_ELEMENT_THEORY>SGP4</MEAN_ELEMENT_THEORY></metadata><data><meanElements><EPOCH>2025-05-02T18:03:30.784896</EPOCH><MEAN_MOTION>14.45215648</MEAN_MOTION><ECCENTRICITY>.0004919</ECCENTRICITY><INCLINATION>45.0128</INCLINATION><RA_OF_ASC_NODE>228.8008</RA_OF_ASC_NODE><ARG_OF_PERICENTER>324.5800</ARG_OF_PERICENTER><MEAN_ANOMALY>35.4724</MEAN_ANOMALY></meanElements><tleParameters><EPHEMERIS_TYPE>0</EPHEMERIS_TYPE><CLASSIFICATION_TYPE>U</CLASSIFICATION_TYPE><NORAD_CAT_ID>25114</NORAD_CAT_ID><ELEMENT_SET_NO>999</ELEMENT_SET_NO><REV_AT_EPOCH>43490</REV_AT_EPOCH><BSTAR>.80122E-3</BSTAR><MEAN_MOTION_DOT>.2692E-4</MEAN_MOTION_DOT><MEAN_MOTION_DDOT>0</MEAN_MOTION_DDOT></tleParameters></data></segment></body></omm>
<omm id="CCSDS_OMM_VERS" version="2.0">
<header><CREATION_DATE/><ORIGINATOR/></header><body><segment><metadata><OBJECT_NAME>ORBCOMM FM12</OBJECT_NAME><OBJECT_ID>1997-084D</OBJECT_ID><CENTER_NAME>EARTH</CENTER_NAME><REF_FRAME>TEME</REF_FRAME><TIME_SYSTEM>UTC</TIME_SYSTEM><MEAN_ELEMENT_THEORY>SGP4</MEAN_ELEMENT_THEORY></metadata><data><meanElements><EPOCH>2025-05-02T18:49:59.369952</EPOCH><MEAN_MOTION>14.45236768</MEAN_MOTION><ECCENTRICITY>.0004079</ECCENTRICITY><INCLINATION>45.0134</INCLINATION><RA_OF_ASC_NODE>228.4010</RA_OF_ASC_NODE><ARG_OF_PERICENTER>316.9819</ARG_OF_PERICENTER><MEAN_ANOMALY>43.0713</MEAN_ANOMALY></meanElements><tleParameters><EPHEMERIS_TYPE>0</EPHEMERIS_TYPE><CLASSIFICATION_TYPE>U</CLASSIFICATION_TYPE><NORAD_CAT_ID>25115</NORAD_CAT_ID><ELEMENT_SET_NO>999</ELEMENT_SET_NO><REV_AT_EPOCH>43470</REV_AT_EPOCH><BSTAR>.78364E-3</BSTAR><MEAN_MOTION_DOT>.2631E-4</MEAN_MOTION_DOT><MEAN_MOTION_DDOT>0</MEAN_MOTION_DDOT></tleParameters></data></segment></body></omm>
<omm id="CCSDS_OMM_VERS" version="2.0">
<header><CREATION_DATE/><ORIGINATOR/></header><body><segment><metadata><OBJECT_NAME>ORBCOMM FM09</OBJECT_NAME><OBJECT_ID>1997-084E</OBJECT_ID><CENTER_NAME>EARTH</CENTER_NAME><REF_FRAME>TEME</REF_FRAME><TIME_SYSTEM>UTC</TIME_SYSTEM><MEAN_ELEMENT_THEORY>SGP4</MEAN_ELEMENT_THEORY></metadata><data><meanElements><EPOCH>2025-05-02T17:51:23.988096</EPOCH><MEAN_MOTION>14.45115204</MEAN_MOTION><ECCENTRICITY>.0005706</ECCENTRICITY><INCLINATION>45.0139</INCLINATION><RA_OF_ASC_NODE>229.4842</RA_OF_ASC_NODE><ARG_OF_PERICENTER>311.8878</ARG_OF_PERICENTER><MEAN_ANOMALY>48.1486</MEAN_ANOMALY></meanElements><tleParameters><EPHEMERIS_TYPE>0</EPHEMERIS_TYPE><CLASSIFICATION_TYPE>U</CLASSIFICATION_TYPE><NORAD_CAT_ID>25116</NORAD_CAT_ID><ELEMENT_SET_NO>999</ELEMENT_SET_NO><REV_AT_EPOCH>43490</REV_AT_EPOCH><BSTAR>.73583E-3</BSTAR><MEAN_MOTION_DOT>.2455E-4</MEAN_MOTION_DOT><MEAN_MOTION_DDOT>0</MEAN_MOTION_DDOT></tleParameters></data></segment></body></omm>

</ndm>
